[
    {
        "CCSDS_OMM_VERS": "3.0",
        "COMMENT": "GENERATED VIA SPACE-TRACK.ORG API",
        "CREATION_DATE": "2025-04-14T03:05:54",
        "ORIGINATOR": "18 SPCS",
        "OBJECT_NAME": "GALILEO-PFM",
        "OBJECT_ID": "2011-060A",
        "CENTER_NAME": "EARTH",
        "REF_FRAME": "TEME",
        "TIME_SYSTEM": "UTC",
        "MEAN_ELEMENT_THEORY": "SGP4",
        "EPOCH": "2025-04-13T11:14:14.493984",
        "MEAN_MOTION": "1.70475957",
        "ECCENTRICITY": "0.00040290",
        "INCLINATION": "57.1034",
        "RA_OF_ASC_NODE": "353.4086",
        "ARG_OF_PERICENTER": "21.6106",
        "MEAN_ANOMALY": "338.4533",
        "EPHEMERIS_TYPE": "0",
        "CLASSIFICATION_TYPE": "U",
        "NORAD_CAT_ID": "37846",
        "ELEMENT_SET_NO": "999",
        "REV_AT_EPOCH": "8379",
        "BSTAR": "0.00000000000000",
        "MEAN_MOTION_DOT": "-0.00000092",
        "MEAN_MOTION_DDOT": "0.0000000000000",
        "SEMIMAJOR_AXIS": "29600.094",
        "PERIOD": "844.694",
        "APOAPSIS": "23233.884",
        "PERIAPSIS": "23210.033",
        "OBJECT_TYPE": "PAYLOAD",
        "RCS_SIZE": "LARGE",
        "COUNTRY_CODE": "ESA",
        "LAUNCH_DATE": "2011-10-21",
        "SITE": "FRGUI",
        "DECAY_DATE": null,
        "FILE": "4701263",
        "GP_ID": "285535213",
        "TLE_LINE0": "0 GALILEO-PFM",
        "TLE_LINE1": "1 37846U 11060A   25103.46822331 -.00000092  00000-0  00000-0 0  9998",
        "TLE_LINE2": "2 37846  57.1034 353.4086 0004029  21.6106 338.4533  1.70475957 83791"
    }
]